0 SL-12 R/B(2)
1 12850U 81069F   13283.20434183 -.00000063  00000-0  10000-3 0  9457
2 12850 015.7237 346.7038 0023145 072.2853 287.9778 00.97697864 71097
0 SL-12 R/B(2)
1 12850U 81069F   13285.25138894 -.00000077  00000-0  10000-3 0  9460
2 12850 015.7231 346.6822 0022738 072.1526 288.1048 00.97698082 71113
0 SL-12 R/B(2)
1 12850U 81069F   13287.29841363 -.00000112  00000-0  10000-3 0  9479
2 12850 015.7226 346.6614 0022826 072.3363 287.9129 00.97698686 71134
0 SL-12 R/B(2)
1 12850U 81069F   13289.34543836 -.00000156  00000-0  10000-3 0  9480
2 12850 015.7220 346.6408 0022945 072.4288 287.8163 00.97699461 71159
0 SL-12 R/B(2)
1 12850U 81069F   13292.41595013 -.00000204  00000-0  10000-3 0  9491
2 12850 015.7211 346.6098 0023029 072.5815 287.6597 00.97700279 71187
0 SL-12 R/B(2)
1 12850U 81069F   13294.46296507 -.00000201  00000-0  10000-3 0  9503
2 12850 015.7206 346.5889 0023041 072.7579 287.4852 00.97700173 71209
